{
    "links": {
        "self": "http://www.neowsapp.com/rest/v1/neo/3842890?api_key=iIulBulltgU6a56xZRHN4H3l9WmuAYTsLGpBGhQ2"
    },
    "id": "3842890",
    "neo_reference_id": "3842890",
    "name": "(2019 LX5)",
    "designation": "2019 LX5",
    "nasa_jpl_url": "http://ssd.jpl.nasa.gov/sbdb.cgi?sstr=3842890",
    "absolute_magnitude_h": 26.5,
    "estimated_diameter": {
        "kilometers": {
            "estimated_diameter_min": 0.0133215567,
            "estimated_diameter_max": 0.0297879063
        },
        "meters": {
            "estimated_diameter_min": 13.3215566698,
            "estimated_diameter_max": 29.7879062798
        },
        "miles": {
            "estimated_diameter_min": 0.008277629,
            "estimated_diameter_max": 0.0185093411
        },
        "feet": {
            "estimated_diameter_min": 43.7058959846,
            "estimated_diameter_max": 97.7293544391
        }
    },
    "is_potentially_hazardous_asteroid": false,
    "close_approach_data": [
        {
            "close_approach_date": "2017-07-02",
            "close_approach_date_full": "2017-Jul-02 20:16",
            "epoch_date_close_approach": 1499026560000,
            "relative_velocity": {
                "kilometers_per_second": "20.0354130518",
                "kilometers_per_hour": "72127.4869866164",
                "miles_per_hour": "44817.2154556562"
            },
            "miss_distance": {
                "astronomical": "0.4348050121",
                "lunar": "169.1391497069",
                "kilometers": "65045903.675484227",
                "miles": "40417650.3525952526"
            },
            "orbiting_body": "Earth"
        },
        {
            "close_approach_date": "2019-06-01",
            "close_approach_date_full": "2019-Jun-01 02:28",
            "epoch_date_close_approach": 1559356080000,
            "relative_velocity": {
                "kilometers_per_second": "7.8437275744",
                "kilometers_per_hour": "28237.419267763",
                "miles_per_hour": "17545.6342111275"
            },
            "miss_distance": {
                "astronomical": "0.0287124654",
                "lunar": "11.1691490406",
                "kilometers": "4295323.666288698",
                "miles": "2668990.3635041124"
            },
            "orbiting_body": "Earth"
        },
        {
            "close_approach_date": "2021-03-03",
            "close_approach_date_full": "2021-Mar-03 21:56",
            "epoch_date_close_approach": 1614808560000,
            "relative_velocity": {
                "kilometers_per_second": "11.289917366",
                "kilometers_per_hour": "40643.702517546",
                "miles_per_hour": "25254.4161559718"
            },
            "miss_distance": {
                "astronomical": "0.1427609847",
                "lunar": "55.5340230483",
                "kilometers": "21356739.230222589",
                "miles": "13270462.3981421682"
            },
            "orbiting_body": "Earth"
        },
        {
            "close_approach_date": "2054-02-13",
            "close_approach_date_full": "2054-Feb-13 05:43",
            "epoch_date_close_approach": 2654574180000,
            "relative_velocity": {
                "kilometers_per_second": "21.2771601875",
                "kilometers_per_hour": "76597.7766749374",
                "miles_per_hour": "47594.8796233798"
            },
            "miss_distance": {
                "astronomical": "0.4720122056",
                "lunar": "183.6127479784",
                "kilometers": "70612020.571762072",
                "miles": "43876275.0133857136"
            },
            "orbiting_body": "Earth"
        }
    ],
    "orbital_data": {
        "orbit_id": "2",
        "orbit_determination_date": "2019-11-01 08:11:27",
        "first_observation_date": "2019-06-07",
        "last_observation_date": "2019-06-11",
        "data_arc_in_days": 4,
        "observations_used": 18,
        "orbit_uncertainty": "8",
        "minimum_orbit_intersection": ".0120896",
        "jupiter_tisserand_invariant": "4.356",
        "epoch_osculation": "2458643.5",
        "eccentricity": ".3814703570822084",
        "semi_major_axis": "1.555154491052088",
        "inclination": "2.473983953247608",
        "ascending_node_longitude": "228.5953243205518",
        "orbital_period": "708.3676756766013",
        "perihelion_distance": ".9619091520324482",
        "perihelion_argument": "341.4674627420894",
        "aphelion_distance": "2.148399830071729",
        "perihelion_time": "2458602.630921961254",
        "mean_anomaly": "20.77010089413733",
        "mean_motion": ".508210654383889",
        "equinox": "J2000",
        "orbit_class": {
            "orbit_class_type": "APO",
            "orbit_class_description": "Near-Earth asteroid orbits which cross the Earth’s orbit similar to that of 1862 Apollo",
            "orbit_class_range": "a (semi-major axis) > 1.0 AU; q (perihelion) < 1.017 AU"
        }
    },
    "is_sentry_object": false
}